{
"type": "FeatureCollection",
"name": "farms",
"features": [
{ "type": "Feature", "id": 0, "properties": { "Plot_name": "Kolvadi_2" }, "geometry": { "type": "Polygon", "coordinates": [ [ [ 74.110331324937533, 17.790339346668336 ], [ 74.110346816803073, 17.790374203365758 ], [ 74.110401038332398, 17.790375494354553 ], [ 74.110387067743233, 17.790556362535199 ], [ 74.110379874041229, 17.790623147069979 ], [ 74.110345703959041, 17.790698493695402 ], [ 74.110324122853172, 17.790744729108354 ], [ 74.110216217328826, 17.790722467614941 ], [ 74.110117303930679, 17.790698493695402 ], [ 74.110014793680648, 17.790683081888147 ], [ 74.109971631470586, 17.790674519772622 ], [ 74.109978825172618, 17.790551225261638 ], [ 74.109984220448581, 17.790414231261906 ], [ 74.109991414150585, 17.790273812302104 ], [ 74.109994376862431, 17.79022961262088 ], [ 74.110088619044362, 17.790239940531229 ], [ 74.110207390013372, 17.790243813497611 ], [ 74.110330033948756, 17.790256723385546 ], [ 74.110331324937533, 17.790339346668336 ] ] ] } },
{ "type": "Feature", "id": 1, "properties": { "Plot_name": "Kolvadi_1" }, "geometry": { "type": "Polygon", "coordinates": [ [ [ 74.110427913018754, 17.790746627585506 ], [ 74.110442349973795, 17.790644665518009 ], [ 74.11040845331803, 17.790629276496759 ], [ 74.11042012913893, 17.790518101710461 ], [ 74.110436540524233, 17.790321272825224 ], [ 74.110442759389883, 17.790238706319606 ], [ 74.11062249737212, 17.790264869994061 ], [ 74.110744457477296, 17.790275987492294 ], [ 74.11076132255053, 17.790303163593663 ], [ 74.110722403150447, 17.790466220119654 ], [ 74.110697754196082, 17.790609512095827 ], [ 74.110666618675765, 17.790758980327027 ], [ 74.110625104648193, 17.790752803955769 ], [ 74.110509643760139, 17.790751568682467 ], [ 74.110427913018754, 17.790746627585506 ] ] ] } },
{ "type": "Feature", "id": 2, "properties": { "Plot_name": "Malgaon_2" }, "geometry": { "type": "Polygon", "coordinates": [ [ [ 74.047862475074595, 17.793865964961707 ], [ 74.047951230554148, 17.794046703392809 ], [ 74.048031219067383, 17.794278496751474 ], [ 74.04810312663065, 17.794489376526926 ], [ 74.048129548381254, 17.794596382215058 ], [ 74.048145685741176, 17.794681103354634 ], [ 74.048123093437283, 17.794754528342267 ], [ 74.04800287010589, 17.794805361026011 ], [ 74.047873771226534, 17.794859421181741 ], [ 74.047760846626261, 17.794905657950252 ], [ 74.047686062759652, 17.794785155533049 ], [ 74.047642918221698, 17.794661914340253 ], [ 74.047585392169708, 17.794497592617319 ], [ 74.047516360908446, 17.794355180335231 ], [ 74.047447329647127, 17.794136084294593 ], [ 74.047408208392866, 17.793995063841063 ], [ 74.047674474831538, 17.793932935005373 ], [ 74.047862475074595, 17.793865964961707 ] ] ] } },
{ "type": "Feature", "id": 3, "properties": { "Plot_name": "Malgaon_1" }, "geometry": { "type": "Polygon", "coordinates": [ [ [ 74.048156605626872, 17.794614974052976 ], [ 74.048150526949144, 17.794581656874133 ], [ 74.048133582721221, 17.794503390678521 ], [ 74.048107762945349, 17.79440172531103 ], [ 74.048060964601589, 17.794262944015721 ], [ 74.048005290709867, 17.794086239924603 ], [ 74.047958895800093, 17.793966823461197 ], [ 74.047917543815302, 17.793872218188675 ], [ 74.04804180148669, 17.793843170940821 ], [ 74.048175741574013, 17.793790724521084 ], [ 74.048271758865539, 17.793764097877215 ], [ 74.048362128081081, 17.793756029197258 ], [ 74.048411595723195, 17.793830136658642 ], [ 74.048417525725171, 17.793941181007867 ], [ 74.048447175736896, 17.794082338979436 ], [ 74.048484732416767, 17.794178326336549 ], [ 74.048498569088679, 17.794300663088549 ], [ 74.048512405760562, 17.794372182997208 ], [ 74.048492639086646, 17.794438056572204 ], [ 74.048478802414763, 17.79452086903207 ], [ 74.048413572391155, 17.794530279536303 ], [ 74.048358698892102, 17.794554223362269 ], [ 74.048253806052628, 17.794586498082108 ], [ 74.048156605626872, 17.794614974052976 ] ] ] } }
]
}
